Store Name,Store Address,City,State,Pincode
Eluru-Narsimharaopet,"Unit no. 25-19-9, Ground and First Floor, CMR Shopping Mall, situated near APSRTC Bus station, Vijayawada Road, Narasimharao Pet, Main road, Eluru, West Godavari Andhra Pradesh  - 534006",Eluru,Andhra Pradesh,534006
Guntur-Lakshmipuram Road,"Ground & First  floor New Building, # 3-28, 19/4, Brundavan Gardens, Lakshmipuram Main Road, Guntur Andhra Pradesh - 522006",Guntur,Andhra Pradesh,522006
Rajahmundry-RTC Complex Road,"Ground + First floor & Part Second floor R.K. Plaza, RS. No 283/1 RTC Complex Road Rajamahendravaram Andhra Pradesh - 533103",Rajahmundry,Andhra Pradesh,533103
Vizag-Sripuram,"Croma,Ground & First floor MVR # 10-1-39/B&C Waltair Uplands (Opp Rock Park) Siripuram Junction, Visakhapatnam – 530020",Visakhapatnam,Andhra Pradesh,530020
Vizag-Muralinagar,"Croma, First floor Hema Abodes, Botcha Square (Passport Seva Kendra) NH -16, Birla Junction, Muralinagar, Visakhapatnam - 530007",Visakhapatnam,Andhra Pradesh,530007
Chandigarh-Sector 26,"CROMA,Ground/Basement,Building-SC No-57 Sec 26,Madya Marg - 160019",Chandigarh,Chandigarh,160019
Chandigarh-Sector 22B,"CROMA,Ground/First Floor Building SCO No.1094-1095,Sec 22B - 160022",Chandigarh,Chandigarh,160022
Bilaspur-Srikant Verma Marg,"Om Shakuntalan building, plot No.47/1,2 & 3, besides sai darbar near Rama Magneto Mall, Srikant verma marg, Bilaspur- 495001",Bilaspur,Chhattisgarh,495001
Raipur-Pandri Road,"Rajinder Plaza, Part of Ground & First floor, Beside Simran Furniture main road, Vidhan Sabha road, Pandri, Raipur Chhattisgarh-492004",Raipur,Chhattisgarh,492004
Raipur-VIP Chowk,"Shop No 1,2,3,4& 5 at ground floor and shop No.1001,1002,1003,1004 & 1005 at First Floor of currency tower G.E road VIP Chowk Corner, Raipur",Raipur,Chhattisgarh,
Delhi-Rohini,"Croma,Vikas Surya Shopping Mall Plot No.18,Mangalam Place,Sec -3,Rohini  - 110085",New Delhi,Delhi,110085
Delhi-Kamlanagar,"CROMA,27,Bunglow Road Kamla Nagar - 110007",New Delhi,Delhi,110007
"Delhi-Airport Terminal 1D","CROMA,Unit No.5H & 5I,8 Security Hold Area Terminal T-1-D ,Domestic Airport - 110007",New Delhi,Delhi,110007
Delhi-Saket,"CROMA,E-150 Saket - 110017",New Delhi,Delhi,110017
Delhi-Rajouri,"CROMA Plaza,Situated at C-10 Rajouri Garden Ring Road - 110027",New Delhi,Delhi,110027
Delhi-SouthEx,"CROMA,D-14  South Ex.Part 2 - 110049",New Delhi,Delhi,110049
Delhi-Airport Terminal 3 Domestic,"CROMA,Unit No.D-18,Sec.Hold Area(SHA),Dom.Dep. Ter.-3,Indira Gandhi Int. Airport - 110037",New Delhi,Delhi,110037
Delhi-Connaught Place,"CROMA,Grnd Flr,Odeon Cine Complex,D Block Connaught Place - 110001",New Delhi,Delhi,110001
Delhi-Airport Terminal 3 International,"CROMA,Unit No.IN-18b & IN-19a,Sec.Hold Area(SHA) Int. Dep. Term-3,Indira G&hi Int. Airport - 110037",New Delhi,Delhi,110037
Delhi-East Of Kailash,"CROMA,“Lamba House”,Plot No.E-11-A East of Kailash - 110065",New Delhi,Delhi,110065
Delhi-Dwarka,"CROMA ,Soul City Mall,Radisson Hotel,Plot No.4 Sec-13,Dwarka - 110075",New Delhi,Delhi,110075
Delhi-Preet Vihar,"CROMA,Plot No.C-53   Preet Vihar,Vikas Marg - 110092",New Delhi,Delhi,110092
Delhi-Pusa Road,"CROMA ,Pusa Road-Plot No.3B  Pusa Road - 110005",New Delhi,Delhi,110005
Delhi-Select City Walk,"CROMA,Select City Walk:F-02,First Floor,Select City Walk Plot No.A-3 & P-1B,District Centre,Saket - 110017",New Delhi,Delhi,110017
Delhi-Rohini West Mall,"CROMA, Unity one-Rohini,Multilevel car parking,Shop no G1,Sector-10 rohini west metro station,Rohini - 110085",New Delhi,Delhi,110085
Delhi-Janakpuri,"CROMA, Unity one-janakpuri,Multilevel Car Parking,Shop no G6,G7, F6 & F7 Janakpuri west metro station, Near Metro Piller No :- 600 - 110058",New Delhi,Delhi,110058
Delhi-Vasant Kunj Mall,"Croma, S-232  , 2nd floor, Ambience Mall, Land Bearing Number 2, Vasant Kunj, Phase 2, Nelson Mandela Road, New Delhi - 110070",New Delhi,Delhi,110070
Delhi-Vegas Mall,"Croma, F-161, F-182 to F-198 Vegas Mall, Block-B, Plot No.6, Sector:14 (North), Dwarka, New Delhi- 110078",New Delhi,Delhi,110078
Goa-Porvorim,"Croma, Mathura One, Survey No. 381/3, NH 17, Porvorim, Bardez, North Goa, Goa, PIN – 403501",Goa,Goa,403501
Ahmedabad-Himalaya Mall,"CROMA,Basement-Himalaya Mall,Indraprasth Tower Drive in Road,Memnagar - 380052",Ahmedabad,Gujarat,380052
Ahmedabad-Devarc,"CROMA,Dev Arc Mall,Next to Fun Republic Junction of Sg Road & Satellite Road - 380053",Ahmedabad,Gujarat,380053
Ahmedabad-Ratna,"CROMA,Ratna Business Square,TP Scheme No.3 opp h k  College,Ashram Road - 380009",Ahmedabad,Gujarat,380009
"Ahmedabad-Terminal Domestic","CROMA,Terminal-1,SHA,First Floor S.V.P.I.Airport - 380003",Ahmedabad,Gujarat,380003
Ahmedabad-Motera,"Croma The Emporio, Ground & 1st Floor, Opp. 4 D Square Nr Engineering College, Visat - Gandhinagar Highway, Motera - 380005",Ahmedabad,Gujarat,380005
Ahmedabad-Mani Nagar,"Croma, The Arena, Mani Nagar, Near Kankaria Lake Gate No. 3, Kankaria - 380022",Ahmedabad,Gujarat,380022
Ahmedabad-Satyam64,"Croma, Unit No. 02,03,04 on Ground & 102, 103 & 104 on 1st Floor, Satyam 64, Opp. Gujrat High Court, Near Red Carpet Cinema, SG Highway, Ahmedabad, Gujarat - 380060",Ahmedabad,Gujarat,380060
Ahmedabad-Vastral,"Unit Nos. 48 to 55 on the Ground Floor and Unit Nos. 144 to 161 on the First Floor, Satva Icon Building, Vastral Cross Road, SP Ring Road, Vastral Ahmedabad -382418",Ahmedabad,Gujarat,382418
Ahmedabad-Nikol,"Unit No. 1-4 & 21 to 27 on Ground & Unit No. 101 on First floor Pushkar Icon, Nikol Naroda Road, Nikol, Ahmedabad Gujarat PIN-382 350",Ahmedabad,Gujarat,382350
Ahmedabad-Maninagar South,"Ground Fist & Second Floor Shop No 4,5,6,104,105,106,204,205,206, Lotus & Lily building, R.S. No. 172/1 Plot No D. TP Area TP-24 Manipur Extension, Mauja Rajpur Haripur, Maninagar Ahmedabad 380008",Ahmedabad,Gujarat,380008
Ahmedabad -Science City,"Unit no. 4,5,6 & 7 on Ground Floor and Unit no. 104, 105 & 106 on First Floor, Hir Asha Square, Near Earth Aroma, Science City Circle, S.P. Ring Road, Bhadaj, Ahmedabad (Gujarat) – 380060",Ahmedabad,Gujarat,380060
Anand-Vidyanagar Road,"Croma, Ground, First and Second Floor of the building known as “CP House”, Plot No. 15 Paiki, Mouje Village Anand, Tehsil and District Anand, Gujarat",Anand,Gujarat,
Bharuch-Dahej Bypass Road,"Croma,Unit No. 2 & 3 on Ground & Unit No. 102,103 & 104 on First floor, The Acropolis Building, opp. GACL Colony, Near Sharvan Chowkdi, Bharuch Dahej Bypass Road, Bharuch, Gujarat. PIN - 392001",Bharuch,Gujarat,392001
Bhavnagar-Sun Exotica,"Croma, Unit Nos. G/3, G/4 on Ground Floor and G- 104, G-105 & G-106 on First Floor, Sun Exotica, Plot No.16, 65-68, Iscon Megacity, Kalvibid Water Tank to Jewel's Circle Road, Bhavnagar, Gujarat. PIN – 364001.",Bhavnagar,Gujarat,364001
Bhuj-Seven Sky Mall,"Croma, Ground & First Floor (Anchor 2), Seven Sky Mall, Seven Sky Ring Road, Bhuj, Kutch, Gujarat, PIN -  370001.",Bhuj,Gujarat,370001
Gandhidham-RT Road,"Croma, Ground and First floor, Plot No. 323, Ward-12B, Rabindranath Tagore, Gandhidham, Kutch, Gujarat-370201",Gandhidham,Gujarat,370201
Jamnagar-Shreeji One,"Croma, Unit No. 1-7 on Ground & 1st Floor, Shreeji One, Nr. Gurudwara, Indira Gandhi Road, Jamnagar, Gujarat. PIN - 361001",Jamnagar,Gujarat,361001
Junagadh-Timbawadi Road,"Croma, Western Square Plot bearing No.14 to 17 and 27 to 29, Timbawadi Road, Near Swaminarayan Temple, Junagadh, 362 001, Gujrat",Junagadh,Gujarat,362001
Mehsana-Modhera Circle,"Part of Ground & First Floor, Simandhar Survey No. 1990/11, City Survey No. 2489 + 2295, Near Ashapuri Society,  Mehsana, Gujarat 384002",Mehsana,Gujarat,384002
Nadiad-Uttarsanda Road,"Croma, Ground, First & Second floor Sepal Building, Uttarsanda Road, Opp. Tulsi  Residency, Nadiad, Gujarat - 387 001",Nadiad,Gujarat,387001
Navsari-Grid Road,"Ground Floor, First Floor & Second Floor , Ground floor, Opposite PG Garden, Grid Road, Kabilpore, Navsari -394624",Navsari,Gujarat,394624
Palanpur-Delhi Highway,"Part of Ground Floor and First Floor, Chaudhary Complex 2&3, Near Chaudhary Complex 1, Delhi Highway, Palanpur, Dist. Banaskantha, Gujarat. PIN – 385001",Palanpur,Gujarat,385001
Rajkot-Crystal Mall,"CROMA,Crystal Mall,Opp Rani Tower Kalvad Main Road - 360005",Rajkot,Gujarat,360005
Rajkot-Nana Mawa Chowk,"Unit No. 1-4 on Ground & Unit No. 101-106 on First floor RK Prime Building, Next to Silver Heights, Nana Mava Circle, 150 Ft Ring Road, Rajkot, Gujarat. PIN-360 002",Rajkot,Gujarat,360002
Surat-Ghoddod,"CROMA, Crossway Mall Ram Chowk, Ghod Dod Road - 395007",Surat,Gujarat,395007
Surat-Ripple,"CROMA,Ripple Mall,Opp.Arun Motors Piplod,Dumas Road - 395001",Surat,Gujarat,395001
Surat-Adajan,"CROMA,Proton Plus,Opp.Khodiyar Temple L.P.Savani Road,Adajan - 395009",Surat,Gujarat,395009
Surat-Deepkamal Mall,"CROMA, DeepKamal Mall, Sarthana Naka Varachha Road - 395006",Surat,Gujarat,395006
Surat-Parvat Patiya,"Croma, DG Point, Block No 138 and 139, Puna Jakat Naka, Survey No. 76- 77, FP No. 54 of TPS NO 53, Magob, Opp Amazia Retail, Parvat Patia, Surat – 395010",Surat,Gujarat,395010
Surat-VIP Road,"Unit Nos 15-27 on Ground & Unit Nos 114-124 on First floor, Avadh Arena Building, VIP road, Vesu, Surat, Gujarat. PIN - 395 007",Surat,Gujarat,395007
Vadodara-Centre Square Mall,"CROMA,Centre Square Mall,Survey-54/A/2,Village Wadi Near Sarabhai Circle,Opp.Vadodara Central,Taluka Vadodara - 390023",Vadodara,Gujarat,390023
Vadodara-Eva Mall,"CROMA,Unit No.2,3,4,5,6,7,1st FLR/Unit No.2,3,4,5,6,7,2nd FLR EVA Mall, Patidar Crossing,Nr. Saraswati, Complex,Manjalpur - 390011",Vadodara,Gujarat,390011
Vadodara-Kareli Baug,"Croma, Ground & First floor Bricklane, L&T Circle, VIP Road, Kareli baug, Vadodara, Gujarat - 390008",Vadodara,Gujarat,390008
Vadodara-OP Road,"Ground & First floor Pancham Plus, Survey No 133/ Paiki, O.P. NO. 33, Mouja/Village Akota, Vadodara Gujarat - 390 012",Vadodara,Gujarat,390012
Vapi-Daman Road,"Croma, Rathod Chambers,Near balaji Tower, Daman Road, Chala, Vapi. 396191",Vapi,Gujarat,396191
Faridabad-Crown Mall,"Croma Crown Faridabad,1st Flr,Crown Mall 12/7 Main Mathura Road, NH2 - 121003",Faridabad,Haryana,121003
"Gurugram-Dlf Mega Mall","CROMA ,DLF Mega Mall,Phase-1 DLF City - 122002",Gurgaon,Haryana,122002
Gurugram-Sector 49,"CROMA,Ground/Mezzanine Floor,Universal Trade Tower Sec-49,Sohna Road - 122018",Gurgaon,Haryana,122018
Gurugram-Sector 29,"CROMA,Ground/First/Basement  SCO No.313 &First Floor,SCO No.314,Sec-29 - 122002",Gurgaon,Haryana,122002
Gurugram-Ambience Mall,"Croma Ambience Mall, S-207,208,2nd Floor,Ambience Mall Ambience Island, NH-8 - 122001",Gurgaon,Haryana,122001
Gurugram-Worldmark 2,"Croma, Part of Ground & First Floor, Wolrdmark, Gurugram, Village Maidawas, Sector 65, District Gurugram, Haryana-122018",Gurgaon,Haryana,122018
"Dhanbad-Prabhatam Grand Mall","Prabhatam Grand Mall – Chanchani Colony, Dhanbad, Jharkhand 826004",Dhanbad,Jharkhand,826004
Bangalore-SS Manor,"CROMA,S S Manor,Chelikere Ring Road Chikka Tayapa Reddy Layout,Kalyana Nagar Post - 560043",Bangalore,Karnataka,560043
Bangalore-Indira Nagar,"CROMA,767-767/1,Hal 2nd Floor 100 Ft Road,Indiranagar - 560038",Bangalore,Karnataka,560038
Bangalore-J P Nagar,"CROMA ,Ground floor/First Floor ,Woodys ,45/1- 1 17th Main,5th Cross,2nd Phase,Marehalli Road,J.P Nagar - 560078",Bangalore,Karnataka,560078
Bangalore-Bel Road,"CROMA Plot No.20 Samarth,New BEL Road Jaladarshini Layout - 560054",Bangalore,Karnataka,560054
Bangalore-Koramangala,"CROMA Ground Floor,Indraprastha Equinox,Plot no.23 100 ft. Inner Ring Road,Koramangala - 560095",Bangalore,Karnataka,560095
Bangalore-Marathahalli,"CROMA ,P.R. Business Centre,Kadubeesanahalli Sarjapur,Outer Ring Road,Marathahalli - 560037",Bangalore,Karnataka,560037
Bangalore- Bannerghatta Mall,"CROMA,Unit/Anchor No.1,Royal Meenakshi Mall Opp. Meenakshi Temple,Bannergatta Road - 560076",Bangalore,Karnataka,560076
Bangalore-Banshankari,"CROMA,S.R.P.Arcade,30/31,6th Phase 3rd Stage,100 ft Ring Road,Banshankari - 560085",Bangalore,Karnataka,560085
Bangalore-PMC Mall,"CROMA,Unit No.F69,1st Flr,Phoenix Market City Mahadevpura,Nr. Krishnarajapuram Flyover - 560048",Bangalore,Karnataka,560048
Bangalore-Rajaji Nagar,"CROMA,Rajaji Nagar,Plot No-385/11 19th G Main,1st N Block,Rajaji Nagar - 560010",Bangalore,Karnataka,560010
Bangalore-Jaynagar,"CROMA,Ground/First Flr,Shravanee’s Krishna Mansion Plot No.31,100 ft. Road,2nd Block,Jayanagar - 560011",Bangalore,Karnataka,560011
Bangalore-Total Mall,"CROMA,Ground Floor,Total Mall,Kaikondarhalli Village Varthurhobli,Sarjapur Road - 560035",Bangalore,Karnataka,560035
Bangalore-Whitefield,"Croma, Miraya Rose, Survey No.66/1 (Old No.66) Situated at Siddapura Village, Varthur Hobli - 560066",Bangalore,Karnataka,560066
Bangalore-Yelahanka,"Croma, Survey No.32 situated at Allalasandra Village, B. B. Road, Yelahanka Hobli, Bengaluru North, Yelahanka, Bangalore - 560064",Bangalore,Karnataka,560064
Bangalore-Star Bazar,"Croma, First Floor, H.M Tower, HM Vibha tower, Ward no 63, Koramangala Bangalore - 560029",Bangalore,Karnataka,560029
Bangalore-Hennur Road,"Indraprastha, Survey Number 11, Gubbi Cross, Hennur Bagalur Road, Bangalore – 560 017",Bangalore,Karnataka,560017
Bangalore- Malleshwaram,"SHRAVANEE KICHAPPA ARCADE_” , 2nd Main, Sampige Road, Malleshwaram, Bangalore - 560003",Bangalore,Karnataka,560003
Bangalore-Gunjur,"Sy.No. 219/1 & 219/2, Varthur – Gunjur Main Road, Next to Chrysalis High School, SH-35, Gunjur Village, Bangalore - 560087",Bangalore,Karnataka,560087
Davangere-Hadadi Road,"Croma, D. No: 1647, Hadadi Road, Ambedkar Circle, Next to Bharat Petrol Pump, Davangere – 577001",Davanagere,Karnataka,577001
Hubli-Gokul Road,"Croma, Ground and First Floor, Signature Mall, Opposite Urban Oasis, Gokul Road, Airport Road, Hubli – 580 030",Hubli,Karnataka,580030
Mandya-MC Road,"Croma, Dayananda International D2/1529/1784/1, Bandi Gowda Layout, M.C.Road, Mandya, Karnataka – 571401",Mandya,Karnataka,571401
Mangalore-MAK Mall,"Croma, MAK MALL, Kankanady, Mangalore, Karnataka - 575002",Mangalore,Karnataka,575002
Mysore-Double Road,"Croma, # 508, Vishwamanava Double Road, Kuvempunagar, Mysuru - 570023",Mysore,Karnataka,570023
Bhopal-DB Mall,"Croma, Unit No. 29A, DB City Mall, Opp MP NagarZone-1, Khasra 1511 & 1509, Arera Hills, Opp. MP Nagar Bhopal, Madhya Pradesh- 462004",Bhopal,Madhya Pradesh,462004
Bhopal-Arera Colony,"Croma,Plot bearing No. E-4/153, Ward No. 45, 10 No. Market, Arera Colony, Bhopal, Madhya Pradesh. PIN - 462016",Bhopal,Madhya Pradesh,462016
Gwalior-City Center,"Croma, C-1, Opposite Hotel Central Park, City Centre, Gwalior-474001",Gwalior,Madhya Pradesh,474001
Indore-Vijay Nagar Square,"Croma, Unit No. F 1 to F 11, First Floor, Apollo Premier, Vijay Nagar Square, Madhya Pradesh, Indore - 452010",Indore,Madhya Pradesh,452010
Indore-Aerodrum Road,"Space Tower, Part of Ground, Mezzanine & first floor, Plot No.114 part of khasra no.178/1 and 181, Tirupati Nagar Colony, Aerodrum Road, Indore, Madhya Pradesh. PIN - 452001.",Indore,Madhya Pradesh,452001
Aurangabad-Prozone Mall,"Croma,Prozon Mall.Unit No.G-67,Plot No.P- 80,MIDC Chikalthana Area,Airport Road - 431210",Aurangabad,Maharashtra,431210
Aurangabad-Waluj,"Croma, Plot no. P-142, MIDC, Waluj, Aurangabad ,Maharashtra-431136",Aurangabad,Maharashtra,431136
Baramati-Bhigwan Road,"Croma, 116/12, Lower Ground, Ground, First and Second Floor, G G Prime Square, Jalochi, Bhigwan Road, Baramati, Taluka, Pune, Maharashtra. PIN – 413102",Baramati,Maharashtra,413102
Kolhapur-StarBazaar,"Croma, Part Ground Floor, Ghatge Patil Automobiles, Plot No. 517 E, Old Pune Bangalore Road, Opp. Hotel Victor Palace, Kolhapur, Maharashtra. PIN – 416001.",Kolhapur,Maharashtra,416001
Mumbai-Juhu,"CROMA,Ground Floor,Vasundhara CHS Opp Utpal Shanghvi School,JVPD,Vile Parle(W) - 400049",Mumbai,Maharashtra,400049
Mumbai-Malad,"CROMA,Palm Spring Center Ground Floor,Malad Link Road - 400064",Mumbai,Maharashtra,400064
"Mumbai-Airport
Terminal 1B","CROMA, At Ph II of Terminal B1 CSI Airport - 400099",Mumbai,Maharashtra,400099
Mumbai-Mulund,"CROMA,Colour Scape,Mall Dhamaal,Off LBS Road,Dumping Rd Opp.R-Mall,Nr Mulund Checknaka,Mulund(W) - 400080",Mumbai,Maharashtra,400080
Mumbai-Bandra Mall,"CROMA,Lower Ground Floor,Link Square mall,Plot no.490/491 33rd Road,off Linking Road,Bandra(W) - 400050",Mumbai,Maharashtra,400050
Mumbai-Fort,"CROMA ZIP,Ground floor,Elphistone Building 10- Veer Nariman Road,Horniman Circle,Fort - 400023",Mumbai,Maharashtra,400023
Mumbai-PMC Lower Parel Mall,"CROMA,Block-43,Grand Galleria,Pheonix Mills Compound 462,Senapati Bapat Marg,Lower Parel - 400013",Mumbai,Maharashtra,400013
"Mumbai-Ghatkopar Mall","CROMA,Unit No.G10,Ground Floor,Rcity L.B.S Marg,Ghatkopar(W) - 400086",Mumbai,Maharashtra,400086
Mumbai-Sion,"CROMA,Sion Garage Bldg.Plot No.112,Near Cinemax Sion Koliwada Rd. - 400022",Mumbai,Maharashtra,400022
Mumbai-Oberoi Mall,"CROMA,Unit no F-25,First Floor,Oberoi Mall Pvt Ltd Off Western Exp.Highway,Goregaon(E) - 400063",Mumbai,Maharashtra,400063
Mumbai-Breach Candy,"CROMA,Dhun-Abad,106,Bhulabai Desai Road Junction of Warden Road/Nepean Sea Road - 400036",Mumbai,Maharashtra,400036
Mumbai-Kandivali,"CROMA,Ground/Lower Ground Flr,V Souk,B-2,Sec- 10 Opp.Kamla Vihar Sports Club,Mahavir Nagar,Kandivali(W) - 400067",Mumbai,Maharashtra,400067
Mumbai-Prabhadevi,"Croma,Lower Ground Floor,Century Bhavan Dr.Annie Besant Road,Worli - 400030",Mumbai,Maharashtra,400030
"Mumbai-PMC Kurla Mall","CROMA,UG-41/42,Phoenix Market City L.B.S.Marg,Kurla(W) - 400070",Mumbai,Maharashtra,400070
Mumbai-Andheri,"CROMA,Unit No.2/3,Landmark Link Road,Andheri(W) - 400053",Mumbai,Maharashtra,400053
Mumbai-Airport Terminal 2,"CROMA, Terminal 2, Chhatrapati Shivaji Domestic Aiport Sahar, Andheri East - 400099",Mumbai,Maharashtra,400099
Mumbai-Bhandup Mall,"CROMA,Neptune Mall Ground Floor, Near Mangatram petrol pump L.B.S Road, Bhandup West - 400078",Mumbai,Maharashtra,400078
Mumbai-Growel101 Mall,"Croma Growel's 101, Address Off Western Express Highway, Akurli Road Kandivali East - 400101",Mumbai,Maharashtra,400101
Mumbai-Borivali,"Croma, Ground & 1st Floor, Natraj Sodawala Lane, Borivali (West) - 400092",Mumbai,Maharashtra,400092
Mumbai-Infiniti Mall,"Croma,Infiniti Mall, Unit No.LG002, Malad Link Road Malad West - 400064",Mumbai,Maharashtra,400064
Mumbai-Churchgate,"Croma, Block No. 2, Ground Floor, Ram Mahal Building, 8, Dinshaw Vachha Road, Churchgate, Mumbai, Maharashtra. PIN – 400020.",Mumbai,Maharashtra,400020
Mumbai-Kurla LBS Road,"Croma, “Global One”  252 and 252/1, LBS Marg, Kurla (W), Mumbai – 400070, Maharashtra",Mumbai,Maharashtra,400070
Mumbai-Chembur,"667A/2,VN Purav Marg, Sabari Park, Opp R K Studio, Chembur, Mumbai-400071",Mumbai,Maharashtra,400071
Nashik-Solitario,"CROMA,Unit No.1/2/101,Hari Prabha Solitario Kulkarni Baug,Off College Road,Thatte Marg - 422005",Nashik,Maharashtra,422005
Nashik-Nashik Road,"Pushpa Park, Inox Signal Nashik Pune Highway Nashik-422011",Nashik,Maharashtra,422011
Navi Mumbai-Belapur,"CROMA,Lords Bldg,Plot 35/35A Sec-15,CBD Belapur - 400614",Navi Mumbai,Maharashtra,400614
Navi Mumbai-Kharghar,"CROMA ,Showroom no.2/3/4/5/6,Ground/First Floor The Landmark,Plot No.26A,Sec 07,Kharghar - 410210",Navi Mumbai,Maharashtra,410210
Navi Mumbai-Vashi,"CROMA, Akshar Plaza, Ground & First Floor, Plot No. 26 & 27, Sector 19 C, Palm Beach Road, Vashi, - 400705",Navi Mumbai,Maharashtra,400705
Navi Mumbai- Seawoods Mall,"CROMA,Seawoods Grand Central Mall,Plot No. R1,Sector 40 Seawoods Railway Station, Navi Mumbai - 400706",Navi Mumbai,Maharashtra,400706
Pune-Krome Mall,"CROMA Krome Mall, 32/1  Pune Solapur Road,Wanowari - 411013",Pune,Maharashtra,411013
Pune-Aundh,"CROMA,NSG IT Park ,Survey No.127/2B/1A,ITI Road Near Sarjaa Restaurant,Aundh - 411007",Pune,Maharashtra,411007
Pune-Pimpri,"CROMA,Shubhan Galleria,Shop no.2,Ground Flr 209 Near Pimpri Bridge,Opp Judson High School,Pimpri - 411018",Pune,Maharashtra,411018
Pune-Kothrud,"CROMA,Giridhar Avenue,Ground Flr S.No.20/2 Plot No.R1,CTS No.677,Kothrud - 411038",Pune,Maharashtra,411038
Pune-Seasons Mall,"CROMA,Unit No.G-20/21,Season Mall Hadapsar,Magarpatta City - 411028",Pune,Maharashtra,411028
Pune-Wakad,"CROMA,Ground Floor,Showroom no.3/2 Building no.‘A’,G.O.Square,Wakad - 411057",Pune,Maharashtra,411057
Pune-PMC Mall,"CROMA, Unit No: F-41, 1st Floor, Phoenix Market City Viman Nagar - 411014",Pune,Maharashtra,411014
Pune-Baner,"Croma,Showroom No. 1 & 2, Ground Floor, Pride Gateway S. No. 112/1/2/1, 112/1/2/3 (P), Baner - 411045",Pune,Maharashtra,411045
Pune-Chinchawad,"Croma,Aishwaryam One, P-71, D 3 Block, MIDC, Chinchawad, Pune-411019",Pune,Maharashtra,411019
Pune-Katraj,"Ground & Mezzanine floor, Showroom No 1, 2 & 3, Sugandhtrara Realty, Survey. No 83, Katraj Ambegaon Highway, Katraj, Pune - 411046, Maharashtra.",Pune,Maharashtra,411046
Solapur-Murarji Peth,"Unit no. 1-7,18-25 on Ground Floor and Unit no. 1 7,18-25 on First Floor, Vishal Heights, situated at Pune Road, Marunji Peth Near Central Bus Stand, Solapur – 413001",Solapur,Maharashtra,413001
Thane-Bhayander,"CROMA,Rashesh Mall,Near Maxus Mall Next Venkatesh Hall,Sri Vallabhacharyaji Marg - 401101",Thane,Maharashtra,401101
Thane-R Mall,"CROMA ,R Mall,Godhbunder Road Thane(W) - 400607",Thane,Maharashtra,400607
Thane-Big Centre Mall,"Croma, Level 1,Big Shopping Center, Above Hyper City, Ghodbunder Rd, Thane (W), Mumbai - 400601",Thane,Maharashtra,400601
Thane-Ghodbunder Road,"Croma, House No. 43, S. NO. 32/2H, 5 Ghodbunder Road, Thane, Maharashtra. PIN – 400607",Thane,Maharashtra,400607
Jalandhar-Lajpat Nagar,"Croma, Ground & First Floor,260, LAJPAT NAGAR, JALANDHAR – 144001",Jalandar,Punjab,144001
Mohali-VR Mall,"Croma, Unit No.G-17,18,19, F-17,18,19  -VR PUNJAB NH-21, Mohali Kharar Road, Mohali, S.A.S Nagar, Punjab, India, Pin -160055",Mohali,Punjab,160055
Jaipur-WTP Mall,"Croma, 1st floor,  Tower A1, North block, World Trade Park, Jawahar Lal Nehru Marg, D – Block, Malviya Nagar, Jaipur – 302017",Jaipur,Rajasthan,302017
Kota-Dakaniya Station Road,"Croma, 1-4, Dakaniya Station Road, Road No 1, Indraprastha Industrial Area, Kota , Rajasthan 324005",Kota,Rajasthan,324005
Chennai-Mount Road,"CROMA,Tarapore Towers,826 Ground Floor Anna Salai,Mount Road - 600002",Chennai,Tamil Nadu,600002
Chennai-Anna Nagar,"CROMA,Khanna Building,AA-5,2nd Avenue Annanagar - 600004",Chennai,Tamil Nadu,600004
Chennai-T Nagar,"CROMA,Ground Flr,Kences Towers No.1 Ramakrishnan Street,North Usman Road,T Nagar - 600017",Chennai,Tamil Nadu,600017
Chennai-Grand Mall,"CROMA,Grand Mall,Vellachery-No-137 Tambaram Main Road,Velachery - 600042",Chennai,Tamil Nadu,600042
Chennai-PMC Mall,"CROMA,Phoenix Market City Velachery Main Road,Velachery - 600042",Chennai,Tamil Nadu,600042
Chennai-Mogappair,"Croma, Plot no B24, Industrial Plot At Dr. Puratchi Thalaivi Jayalalita Nagar West, Mogappair - 600037",Chennai,Tamil Nadu,600037
Chennai-Avadi,"Croma, Plot No. 6/PC2-4 & 5, TNHB 60 ft Road, Avadi, Chennai - 600054",Chennai,Tamil Nadu,600054
Chennai-BSR Mall,"Croma, Ground & First Floor, BSR Mall, 1/609, Old Mahabalipuram Road, Okkiyam Thoraipakkam, Chennai – 600096",Chennai,Tamil Nadu,600096
Chennai-Chrompet,"Croma, No. 14 & 15, GST Road, Tambaram Sanatorium, Chromepet, Taml Nadu, Chennai - 600047",Chennai,Tamil Nadu,600047
Coimbatore-Prozone Mall,"Croma,Unit No. G-15, Village Sarvanampatti, Sathy Road, Coimbatore, TamilNadu- 641035",Coimbatore,Tamil Nadu,641035
Coimbatore-Laxmi Mills,"Croma,The Laxmi Mills Company Limited, 605- 608, Laxmi Mills, Avanashi Road, P.N. Palayam, Coimbatore-641037",Coimbatore,Tamil Nadu,641037
Hosur-Bagalur Road,"5/15, Bagalur Road, Opposite to pantaloons, Hosur – 635109",Hosur,Tamil Nadu,635109
Salem-Bharathi Street,"Croma, Plot # A/4, Bharathi Street, Swarnapuri, Salem -636004",Salem,Tamil Nadu,636004
Hyderabad-Jubilee,"CROMA,Ground/First Floor,Plot no.755 Road no.36,Jubille Hills - 500033",Hyderabad,Telangana,500033
Hyderabad-Panjagutta,"CROMA,Prestige Towers,Grnd Flr 6-3-664 Panjagutta Main Road,Somajiguda - 500018",Hyderabad,Telangana,500018
Hyderabad-Kondapur,"CROMA,Ground Flr,Nagarjuna Ikon,Kothaguda Serlingampally Mall,Ranga Reddy Dist,Kondapoor - 50008",Hyderabad,Telangana,
Hyderabad-Terminal International,"CROMA ,Unit no. SU 16a, Level F,Domestic Dep. Rajiv Gandhi Int.Airport,Shamshabad - 500409",Hyderabad,Telangana,500409
Hyderabad-L B Nagar,"CROMA, Ground Floor,D.V.Cascade,Plot 59A,59/B,59/C,59/D In Survey 9/9,Saroornagar Village,L.B.Nagar - 500074",Hyderabad,Telangana,500074
Hyderabad-AS RaoNagar,"CROMA, Tirupathi Reddy Plaza, Plot no 2, G Block Colony AS Rao Nagar, Kapra, Ranga Reddy District - 500062",Hyderabad,Telangana,500062
Hyderabad-Kompally,"Croma, Ratna Arcade, Grnd Flr Survey No. 128, National Highway 44 Beside Sree vensai towers, Kompally - 500014",Hyderabad,Telangana,500014
Hyderabad-Attapur,"Croma,ATTA-Sirimallesquare-A152,Sirimalle Square Plot Nos.8 9 10 Survey No.523/B, Pillar no.160, Attapur, Rajendra Nagar Mandal - 500048",Hyderabad,Telangana,500048
Hyderabad-Kukatpally,"Croma, 5-1-63, 64/1, Kukatpally, Hyderabad - 500072",Hyderabad,Telangana,500072
Hyderabad-Sarath City Mall,"Croma, 2F 83-86, Sarath Capital Mall, Survey No. 38, 39P, 40, 41, 42, 48, 49, 50, 51, 52 & 53 situated at Kothaguda Village, Serilingampally Mandal, R. R. District, Hyderabad, Pin-500084",Hyderabad,Telangana,500084
Hyderabad- Ramanthapur,"Croma, Unit No. 2 & 3, Ground Floor, Plot Survey No. 46, Pragathi Nagar, Ramanthapur Main Road, Ramanthapur, Telangana, Hyderabad - 500013",Hyderabad,Telangana,500013
Hyderabad-Karmanghat,"Ground Floor, Shubham Palace, P.No.1,2&3, Sy.No.2 Part, 3/1, 3/2, 3/3, 312 Part 313 and 314 Ward No.B, Block No.1, Srinidhi Colony Saroor Nagar Mandal, Hyderabad, Telangana -500035",Hyderabad,Telangana,500035
Hyderabad- Madinaguda,"Plot No. 186 & 203, Survey No. 2,Madinaguda, NH-9, Hyderabad, Telangana-500049",Hyderabad,Telangana,500049
Secunderabad-New Vikrampuri,"Croma, Unit.no: 3-7-222, & 3-7-223, Vikrampuri, Kharkhana Kakaguda village, Secunderabad, Cantonment - 500009",Secunderabad,Telangana,500009
Ghazibad-Pacific Mall,"CROMA Plot No.1,Dr.Burman Marg,Site 4 Sahibabad Industrial Area - 201001",Ghaziabad,Uttar Pradesh,201001
Ghazibad-Aditya Mall,"CROMA,Aditya City Centre,Plot No.C/GH-3 Vaibhav Khand,Indirapuram - 201001",Ghaziabad,Uttar Pradesh,201001
"Ghazibad- Gaur Central RDC Mall","CROMA,Unit No.9, Ground Floor Gaur Central RDC - 201001",Ghaziabad,Uttar Pradesh,201001
Lucknow-Aliganj,"Plot No.5, Sector E, Aliganj, Lucknow-226024",Lucknow,Uttar Pradesh,226024
"Greater Noida-Ansal Plaza Mall","CROMA,Ansal Plaza,Atrium Ground Floor Unit no.A G-16&22,Pari Chowk - 201308",Noida,Uttar Pradesh,201308
Noida-Logix Mall,"CROMA, Logix City Centre, Unit No.11, 1st Floor Plot No.BW-58,Sector -32 - 201301",Noida,Uttar Pradesh,201301
Noida-Mall of India,"Croma, Unit No. C218B, 1st Floor DLF Mall of India Plot No. H-03, Sector 18 - 201301",Noida,Uttar Pradesh,201301
Noida-Gaur Mall,"Croma,LGF Anchor No.5, Lower Ground Floor, Gaur Mall, C-01B/GH01, Sector-04, Greater Noida (West), Greater Noida-201301, Uttar Pradesh- 201301",Noida,Uttar Pradesh,201301
"Asansol-Bhagat Singh More","Anand Apartment, 190/1 G.T. Road (West) Asansol 713304",Asansol,West Bengal,713304
Kolkata-Sarat Bose Road,"Croma, 57, Sarat Bose Road, Ground, First and Second Floor, PS Residency Building, Kolkata - 700025",Kolkata,West Bengal,700025
Kolkata-Rajarhat,"Croma, Plot No CB 218, AA-I, New Town, Kolkata - 700156",Kolkata,West Bengal,700156
Kolkata-Green Chinar,"Green Chinar, Near City Center II, Major Arterial Road, Noapara P.O. Rajarhat, Dash Drone, Kolkata, West Bengal 700157",Kolkata,West Bengal,700157
Kolkata-Barasat,"Plot bearing No. N – 16, Jessore Road, Barasat, Kolkata – 700124",Kolkata,West Bengal,700124
Kolkata-Kalikapur,"BKV Project , situated at 4/2 Kalikapur Road, Kolkata – 700099",Kolkata,West Bengal,700099
Kolkata-Salt Lake Sector 5,"Aurora Water Front– GN-34/1, Saltlake Sec-V, Bidhannagar, North 24 Parganas, Kolkata – 700091",Kolkata,West Bengal,700091
